ORBCOMM FM37            
1 33064U 08031E   24194.62568828  .00002757  00000+0  41807-3 0  9996
2 33064  48.4389 154.5882 0006157 358.6672 171.5131 14.76790121863805
ORBCOMM FM40            
1 33065U 08031F   24194.63136174  .00003602  00000+0  51986-3 0  9992
2 33065  48.4414 143.3042 0007332   9.3785 161.4287 14.78201372863852
VESSELSAT 1             
1 37840U 11058C   24194.57513209  .00000417  00000+0  83297-4 0  9993
2 37840  19.9635 348.6257 0013793  51.4097 308.7542 14.11173619658272
ORBCOMM FM109           
1 40086U 14040A   24194.33338280  .00001164  00000+0  29470-3 0  9993
2 40086  47.0022 179.8836 0001940 223.9795 136.0936 14.56805052531483
ORBCOMM FM107           
1 40087U 14040B   24194.36717579  .00000703  00000+0  19263-3 0  9996
2 40087  47.0037 180.6952 0000869 205.1812 154.9031 14.56811813531566
ORBCOMM FM106           
1 40088U 14040C   24194.52432364  .00001652  00000+0  32191-3 0  9990
2 40088  47.0623  28.4152 0018240 288.1429  71.7475 14.67280993533556
ORBCOMM FM111           
1 40089U 14040D   24194.59597933  .00002534  00000+0  33766-3 0  9991
2 40089  47.0041 281.5826 0032784   7.6806 352.4586 14.82216384539775
ORBCOMM FM104           
1 40090U 14040E   24194.40352161  .00000656  00000+0  18822-3 0  9994
2 40090  47.0036 210.1510 0015957  91.9880 268.2831 14.55286372531100
